ZHONGXING-2C            
1 41021U 15063A   26060.39627267 -.00000342  00000+0  00000+0 0  9997
2 41021   0.0231 201.6278 0007504  25.3315 178.2955  1.00274703 37895
GSAT-15                 
1 41028U 15065A   26060.51209998 -.00000276  00000+0  00000+0 0  9993
2 41028   0.0966 270.0443 0000759  71.3012  95.8011  1.00269657 37711
BADR-7 (ARABSAT-6B)     
1 41029U 15065B   26060.30969227  .00000126  00000+0  00000+0 0  9992
2 41029   0.0329 214.9648 0003708  50.0801  31.5259  1.00269761 37689
COSMOS 2510             
1 41032U 15066A   26057.97447411  .00001325  00000+0  00000+0 0  9994
2 41032  63.4450   1.4340 7211201 274.5503  13.9305  2.00922535 75254
LAOSAT 1                
1 41034U 15067A   26060.40129936 -.00000361  00000+0  00000+0 0  9998
2 41034   0.0410 302.2030 0002182 358.2683 131.6655  1.00274405 37771
TELSTAR 12V             
1 41036U 15068A   26060.43239193 -.00000137  00000+0  00000+0 0  9992
2 41036   0.0126 109.9177 0002632 231.9111 318.0452  1.00271305 37541
ELEKTRO-L 2             
1 41105U 15074A   26060.37295924 -.00000133  00000+0  00000+0 0  9999
2 41105   6.4225  71.8480 0003479 234.1402 332.9412  1.00270670 37422
COSMOS 2513             
1 41121U 15075A   26059.39339464 -.00000155  00000+0  00000+0 0  9990
2 41121   0.0449 105.8732 0002372 212.0412  62.1356  1.00271387 37451
EXPRESS-AMU1            
1 41191U 15082A   26060.35183495  .00000000  00000+0  00000+0 0  9992
2 41191   0.0266 141.9223 0003330 182.3462 357.6564  1.00268077 37185
GAOFEN-4                
1 41194U 15083A   26060.46811966 -.00000353  00000+0  00000+0 0  9991
2 41194   0.3713  83.7669 0003687  87.5138 262.1855  1.00270561 37449
BELINTERSAT-1           
1 41238U 16001A   26060.45737294  .00000088  00000+0  00000+0 0  9995
2 41238   0.0582 281.5868 0001396  56.7372  37.0930  1.00273961 37159
IRNSS-1E                
1 41241U 16003A   26051.61610370 -.00000285  00000+0  00000+0 0  9994
2 41241  32.9803  61.4290 0018329 191.6255 230.9097  1.00267075 36910
EUTELSAT 9B             
1 41310U 16005A   26060.36850338  .00000043  00000+0  00000+0 0  9996
2 41310   0.0405  71.2519 0004575 246.6923 342.8503  1.00272656 37035
SES-9                   
1 41380U 16013A   26060.39731267 -.00000363  00000+0  00000+0 0  9990
2 41380   0.0374 293.5424 0001379  95.0708  21.8884  1.00271453 36351
EUTELSAT 65 WEST A      
1 41382U 16014A   26060.43423284 -.00000295  00000+0  00000+0 0  9999
2 41382   0.0658  37.0925 0002300 293.5071 279.7410  1.00273080 36456
IRNSS-1F                
1 41384U 16015A   26060.23966530  .00000140  00000+0  00000+0 0  9994
2 41384   5.0765  99.3499 0019258 187.7673 350.6178  1.00269565 36588
BEIDOU-2 IGSO-6         
1 41434U 16021A   26060.39505934 -.00000141  00000+0  00000+0 0  9993
2 41434  60.0821  39.1080 0059813 233.4424 124.5580  1.00278678 36399
IRNSS-1G                
1 41469U 16027A   26060.46155991 -.00000352  00000+0  00000+0 0  9993
2 41469   4.9279 100.0887 0005208 313.4936  41.3920  1.00270060 36098
JCSAT-2B                
1 41471U 16028A   26060.19243175 -.00000184  00000+0  00000+0 0  9992
2 41471   0.0151 126.4203 0001265 209.2023  46.6144  1.00272865 36045
THAICOM 8               
1 41552U 16031A   26060.39124598 -.00000140  00000+0  00000+0 0  9997
2 41552   0.0631  43.1217 0004006 303.6104  31.8268  1.00272353 35632
INTELSAT 31 (IS-31)     
1 41581U 16035A   26060.50453968 -.00000169  00000+0  00000+0 0  9993
2 41581   0.0385 252.8821 0001986 339.5525  13.4314  1.00271522 35601
